[{"OBJECT_NAME":"STARLINK-34794","OBJECT_ID":"2025-165Q","EPOCH":"2026-03-09T19:13:11.286912","MEAN_MOTION":15.05626104,"ECCENTRICITY":6.586e-5,"INCLINATION":97.6016,"RA_OF_ASC_NODE":147.2836,"ARG_OF_PERICENTER":163.6731,"MEAN_ANOMALY":196.4517,"EPHEMERIS_TYPE":0,"CLASSIFICATION_TYPE":"U","NORAD_CAT_ID":65070,"ELEMENT_SET_NO":999,"REV_AT_EPOCH":3480,"BSTAR":8.9258012e-5,"MEAN_MOTION_DOT":1.227e-5,"MEAN_MOTION_DDOT":0},{"OBJECT_NAME":"FENGYUN 1C DEB","OBJECT_ID":"1999-025BBV","EPOCH":"2026-03-07T05:09:56.553696","MEAN_MOTION":14.80587574,"ECCENTRICITY":0.0186084,"INCLINATION":97.8242,"RA_OF_ASC_NODE":327.5507,"ARG_OF_PERICENTER":327.1548,"MEAN_ANOMALY":189.2508,"EPHEMERIS_TYPE":0,"CLASSIFICATION_TYPE":"U","NORAD_CAT_ID":30979,"ELEMENT_SET_NO":999,"REV_AT_EPOCH":371,"BSTAR":0.0016537,"MEAN_MOTION_DOT":0.0001706,"MEAN_MOTION_DDOT":0}]
